GLOBALSTAR M024         
1 25883U 99043A   25133.64857131 -.00000019  00000+0  16104-2 0  9994
2 25883  51.9997  98.5502 0001674  34.5152 136.4547 11.10166838111025
GLOBALSTAR M027         
1 25884U 99043B   25133.37716161 -.00000044  00000+0  72712-3 0  9998
2 25884  52.0180 176.1630 0021428 294.3986  65.4571 11.04372008137394
GLOBALSTAR M054         
1 25885U 99043C   25133.23203541 -.00000007  00000+0  16373-2 0  9996
2 25885  52.0151 309.6533 0006673 112.3958  58.7825 11.39213924115393
GLOBALSTAR M053         
1 25886U 99043D   25133.57917828 -.00000052  00000+0  49261-3 0  9997
2 25886  51.9981 253.9938 0002934  33.8059 339.2173 11.27665096115546
GLOBALSTAR M058         
1 25907U 99049A   25133.54420137  .00000001  00000+0  11463-2 0  9991
2 25907  51.9922 201.6819 0002245 193.9135 166.1638 11.93198999537403
GLOBALSTAR M050         
1 25908U 99049B   25133.63209278  .00000071  00000+0  18008-2 0  9992
2 25908  51.9974 211.7042 0008706 321.6392 186.8177 12.07453819144013
GLOBALSTAR M033         
1 25909U 99049C   25133.53855604 -.00000122  00000+0 -29204-3 0  9992
2 25909  51.9904  86.1819 0013260 190.6158 169.4411 12.20291691531514
GLOBALSTAR M055         
1 25910U 99049D   25133.37898950 -.00000098  00000+0 -30918-4 0  9994
2 25910  52.0003  99.0746 0007274  58.1178 302.0381 12.29427279164007
